{
  "type": "FeatureCollection",
  "features": [
    {
      "type": "Feature",
      "properties": {
        "norad_id": 35446,
        "name": "COSMOS 2251 DEB",
        "group": "cosmos-2251-debris",
        "lat": 70.05374678669683,
        "lon": -18.452359040761603,
        "alt_km": 659.5197630172306,
        "timestamp": "2025-12-27T21:25:02.913025+00:00",
        "meta_object_name": "COSMOS 2251 DEB",
        "meta_object_id": "1993-036AKQ",
        "meta_epoch": "2025-12-27T01:15:32.645952",
        "meta_mean_motion": 14.54644563,
        "meta_eccentricity": 0.00748148,
        "meta_inclination": 74.0474,
        "meta_ra_of_asc_node": 291.119,
        "meta_arg_of_pericenter": 45.2371,
        "meta_mean_anomaly": 315.4845,
        "meta_ephemeris_type": 0,
        "meta_classification_type": "U",
        "meta_norad_cat_id": 35446,
        "meta_element_set_no": 999,
        "meta_rev_at_epoch": 88216,
        "meta_bstar": 0.00014918136,
        "meta_mean_motion_dot": 6.32e-06,
        "meta_mean_motion_ddot": 0,
        "tle_line1": "1 35446U 93036AKQ 25361.05246118  .00000632  00000+0  14918-3 0  9993",
        "tle_line2": "2 35446  74.0474 291.1190 0074814  45.2371 315.4845 14.54644563882166"
      },
      "geometry": {
        "type": "Point",
        "coordinates": [
          -18.452359040761603,
          70.05374678669683
        ]
      }
    },
    {
      "type": "Feature",
      "properties": {
        "norad_id": 35448,
        "name": "COSMOS 2251 DEB",
        "group": "cosmos-2251-debris",
        "lat": -71.24800998810261,
        "lon": 2.34978150176529,
        "alt_km": 711.2042441945632,
        "timestamp": "2025-12-27T21:25:02.913049+00:00",
        "meta_object_name": "COSMOS 2251 DEB",
        "meta_object_id": "1993-036AKS",
        "meta_epoch": "2025-12-26T14:25:10.468704",
        "meta_mean_motion": 14.54377943,
        "meta_eccentricity": 0.0012168,
        "meta_inclination": 73.903,
        "meta_ra_of_asc_node": 63.0866,
        "meta_arg_of_pericenter": 247.5607,
        "meta_mean_anomaly": 112.4267,
        "meta_ephemeris_type": 0,
        "meta_classification_type": "U",
        "meta_norad_cat_id": 35448,
        "meta_element_set_no": 999,
        "meta_rev_at_epoch": 87536,
        "meta_bstar": 0.0010063,
        "meta_mean_motion_dot": 4.254e-05,
        "meta_mean_motion_ddot": 0,
        "tle_line1": "1 35448U 93036AKS 25360.60081561  .00004254  00000+0  10063-2 0  9994",
        "tle_line2": "2 35448  73.9030  63.0866 0012168 247.5607 112.4267 14.54377943875365"
      },
      "geometry": {
        "type": "Point",
        "coordinates": [
          2.34978150176529,
          -71.24800998810261
        ]
      }
    },
    {
      "type": "Feature",
      "properties": {
        "norad_id": 35451,
        "name": "COSMOS 2251 DEB",
        "group": "cosmos-2251-debris",
        "lat": 73.89505944754093,
        "lon": 163.26942003401157,
        "alt_km": 468.02815280509003,
        "timestamp": "2025-12-27T21:25:02.913062+00:00",
        "meta_object_name": "COSMOS 2251 DEB",
        "meta_object_id": "1993-036AKV",
        "meta_epoch": "2025-12-22T16:02:09.713472",
        "meta_mean_motion": 15.36538479,
        "meta_eccentricity": 0.00416089,
        "meta_inclination": 73.9322,
        "meta_ra_of_asc_node": 81.2046,
        "meta_arg_of_pericenter": 326.0524,
        "meta_mean_anomaly": 33.8019,
        "meta_ephemeris_type": 0,
        "meta_classification_type": "U",
        "meta_norad_cat_id": 35451,
        "meta_element_set_no": 999,
        "meta_rev_at_epoch": 67558,
        "meta_bstar": 0.0014760448,
        "meta_mean_motion_dot": 0.00054537,
        "meta_mean_motion_ddot": 0,
        "tle_line1": "1 35451U 93036AKV 25356.66816798  .00054537  00000+0  14760-2 0  9994",
        "tle_line2": "2 35451  73.9322  81.2046 0041608 326.0524  33.8019 15.36538479675584"
      },
      "geometry": {
        "type": "Point",
        "coordinates": [
          163.26942003401157,
          73.89505944754093
        ]
      }
    },
    {
      "type": "Feature",
      "properties": {
        "norad_id": 35453,
        "name": "COSMOS 2251 DEB",
        "group": "cosmos-2251-debris",
        "lat": 15.085255412473074,
        "lon": 167.99197597774392,
        "alt_km": 729.4432071164019,
        "timestamp": "2025-12-27T21:25:02.913074+00:00",
        "meta_object_name": "COSMOS 2251 DEB",
        "meta_object_id": "1993-036AKX",
        "meta_epoch": "2025-12-16T19:11:22.117056",
        "meta_mean_motion": 14.38003213,
        "meta_eccentricity": 0.00669431,
        "meta_inclination": 74.0096,
        "meta_ra_of_asc_node": 12.8823,
        "meta_arg_of_pericenter": 145.8531,
        "meta_mean_anomaly": 214.6957,
        "meta_ephemeris_type": 0,
        "meta_classification_type": "U",
        "meta_norad_cat_id": 35453,
        "meta_element_set_no": 999,
        "meta_rev_at_epoch": 86277,
        "meta_bstar": 0.00051941791,
        "meta_mean_motion_dot": 1.586e-05,
        "meta_mean_motion_ddot": 0,
        "tle_line1": "1 35453U 93036AKX 25350.79956154  .00001586  00000+0  51942-3 0  9995",
        "tle_line2": "2 35453  74.0096  12.8823 0066943 145.8531 214.6957 14.38003213862776"
      },
      "geometry": {
        "type": "Point",
        "coordinates": [
          167.99197597774392,
          15.085255412473074
        ]
      }
    },
    {
      "type": "Feature",
      "properties": {
        "norad_id": 35455,
        "name": "COSMOS 2251 DEB",
        "group": "cosmos-2251-debris",
        "lat": -70.82642619757713,
        "lon": -149.1003750608236,
        "alt_km": 727.8244707805561,
        "timestamp": "2025-12-27T21:25:02.913084+00:00",
        "meta_object_name": "COSMOS 2251 DEB",
        "meta_object_id": "1993-036AKZ",
        "meta_epoch": "2025-12-27T03:33:30.254976",
        "meta_mean_motion": 14.49569648,
        "meta_eccentricity": 0.01000448,
        "meta_inclination": 74.0278,
        "meta_ra_of_asc_node": 267.7507,
        "meta_arg_of_pericenter": 7.9595,
        "meta_mean_anomaly": 352.3123,
        "meta_ephemeris_type": 0,
        "meta_classification_type": "U",
        "meta_norad_cat_id": 35455,
        "meta_element_set_no": 999,
        "meta_rev_at_epoch": 86752,
        "meta_bstar": 0.0016070253,
        "meta_mean_motion_dot": 6.552e-05,
        "meta_mean_motion_ddot": 0,
        "tle_line1": "1 35455U 93036AKZ 25361.14826684  .00006552  00000+0  16070-2 0  9992",
        "tle_line2": "2 35455  74.0278 267.7507 0100044   7.9595 352.3123 14.49569648867523"
      },
      "geometry": {
        "type": "Point",
        "coordinates": [
          -149.1003750608236,
          -70.82642619757713
        ]
      }
    },
    {
      "type": "Feature",
      "properties": {
        "norad_id": 35456,
        "name": "COSMOS 2251 DEB",
        "group": "cosmos-2251-debris",
        "lat": -58.60876216820452,
        "lon": 59.817554754319474,
        "alt_km": 621.8139141559323,
        "timestamp": "2025-12-27T21:25:02.913095+00:00",
        "meta_object_name": "COSMOS 2251 DEB",
        "meta_object_id": "1993-036ALA",
        "meta_epoch": "2025-12-23T00:04:26.032512",
        "meta_mean_motion": 14.69618117,
        "meta_eccentricity": 0.00667181,
        "meta_inclination": 73.9512,
        "meta_ra_of_asc_node": 97.4858,
        "meta_arg_of_pericenter": 305.2899,
        "meta_mean_anomaly": 54.2041,
        "meta_ephemeris_type": 0,
        "meta_classification_type": "U",
        "meta_norad_cat_id": 35456,
        "meta_element_set_no": 999,
        "meta_rev_at_epoch": 66026,
        "meta_bstar": 0.0018731177,
        "meta_mean_motion_dot": 0.00011509,
        "meta_mean_motion_ddot": 0,
        "tle_line1": "1 35456U 93036ALA 25357.00307908  .00011509  00000+0  18731-2 0  9990",
        "tle_line2": "2 35456  73.9512  97.4858 0066718 305.2899  54.2041 14.69618117660267"
      },
      "geometry": {
        "type": "Point",
        "coordinates": [
          59.817554754319474,
          -58.60876216820452
        ]
      }
    },
    {
      "type": "Feature",
      "properties": {
        "norad_id": 35459,
        "name": "COSMOS 2251 DEB",
        "group": "cosmos-2251-debris",
        "lat": 9.663651172322838,
        "lon": 161.94629381060972,
        "alt_km": 768.3694724747984,
        "timestamp": "2025-12-27T21:25:02.913106+00:00",
        "meta_object_name": "COSMOS 2251 DEB",
        "meta_object_id": "1993-036ALD",
        "meta_epoch": "2025-12-27T04:40:05.944800",
        "meta_mean_motion": 14.37485137,
        "meta_eccentricity": 0.0015928,
        "meta_inclination": 73.8699,
        "meta_ra_of_asc_node": 160.4185,
        "meta_arg_of_pericenter": 103.1791,
        "meta_mean_anomaly": 257.114,
        "meta_ephemeris_type": 0,
        "meta_classification_type": "U",
        "meta_norad_cat_id": 35459,
        "meta_element_set_no": 999,
        "meta_rev_at_epoch": 58569,
        "meta_bstar": 0.00032353,
        "meta_mean_motion_dot": 9.43e-06,
        "meta_mean_motion_ddot": 0,
        "tle_line1": "1 35459U 93036ALD 25361.19451325  .00000943  00000+0  32353-3 0  9998",
        "tle_line2": "2 35459  73.8699 160.4185 0015928 103.1791 257.1140 14.37485137585698"
      },
      "geometry": {
        "type": "Point",
        "coordinates": [
          161.94629381060972,
          9.663651172322838
        ]
      }
    }
  ]
}